{"dragon": {"capsule": null, "mass_returned_kg": null, "mass_returned_lbs": null, "flight_time_sec": null, "manifest": null, "water_landing": null, "land_landing": null}, "name": "Starlink-12", "type": "Satellite", "reused": false, "launch": "5ef6a2090059c33cee4a828b", "customers": ["SpaceX"], "norad_ids": [46532, 46533, 46534, 46535, 46536, 46537, 46538, 46539, 46540, 46541, 46542, 46543, 46544, 46545, 46546, 46547, 46548, 46549, 46550, 46551, 46552, 46553, 46554, 46555, 46556, 46557, 46558, 46559, 46560, 46561, 46562, 46563, 46564, 46565, 46566, 46567, 46568, 46569, 46570, 46571, 46572, 46573, 46574, 46575, 46576, 46577, 46578, 46579, 46580, 46581, 46582, 46583, 46584, 46585, 46586, 46587, 46588, 46589, 46590, 46591], "nationalities": ["United States"], "manufacturers": ["SpaceX"], "mass_kg": 15600, "mass_lbs": 34392, "orbit": "VLEO", "reference_system": "geocentric", "regime": "very-low-earth", "longitude": null, "semi_major_axis_km": 6925.337, "eccentricity": 0.0001335, "periapsis_km": 546.278, "apoapsis_km": 548.127, "inclination_deg": 53.0545, "period_min": 95.592, "lifespan_years": null, "epoch": "2022-01-29T02:46:40.000Z", "mean_motion": 15.0640369, "raan": 72.9553, "arg_of_pericenter": 82.9146, "mean_anomaly": 277.1995, "id": "5ef6a48e0059c33cee4a829f"}